[Satellite]
VERSION=1.1
NAME=STARLINK-1329
NICKNAME=STARLINK-1329
TLE1=1 45531U 20025A   20141.91667824  .04575808  00000-0  70249-1 0  9998
TLE2=2 45531  53.0001 261.4626 0004118   1.7402 291.6372 15.49917204  5113
STATUS=0
